{
    "links": {
        "self": "http://www.neowsapp.com/rest/v1/neo/3827353?api_key=iIulBulltgU6a56xZRHN4H3l9WmuAYTsLGpBGhQ2"
    },
    "id": "3827353",
    "neo_reference_id": "3827353",
    "name": "(2018 RG3)",
    "designation": "2018 RG3",
    "nasa_jpl_url": "http://ssd.jpl.nasa.gov/sbdb.cgi?sstr=3827353",
    "absolute_magnitude_h": 26.2,
    "estimated_diameter": {
        "kilometers": {
            "estimated_diameter_min": 0.0152951935,
            "estimated_diameter_max": 0.0342010925
        },
        "meters": {
            "estimated_diameter_min": 15.2951935344,
            "estimated_diameter_max": 34.201092472
        },
        "miles": {
            "estimated_diameter_min": 0.0095039897,
            "estimated_diameter_max": 0.021251567
        },
        "feet": {
            "estimated_diameter_min": 50.1810827555,
            "estimated_diameter_max": 112.2083122258
        }
    },
    "is_potentially_hazardous_asteroid": false,
    "close_approach_data": [
        {
            "close_approach_date": "2018-09-06",
            "close_approach_date_full": "2018-Sep-06 10:59",
            "epoch_date_close_approach": 1536231540000,
            "relative_velocity": {
                "kilometers_per_second": "7.3997938043",
                "kilometers_per_hour": "26639.2576955786",
                "miles_per_hour": "16552.5987608999"
            },
            "miss_distance": {
                "astronomical": "0.0231711123",
                "lunar": "9.0135626847",
                "kilometers": "3466349.045610801",
                "miles": "2153889.4197630138"
            },
            "orbiting_body": "Earth"
        }
    ],
    "orbital_data": {
        "orbit_id": "6",
        "orbit_determination_date": "2018-10-03 06:27:40",
        "first_observation_date": "2018-09-09",
        "last_observation_date": "2018-09-20",
        "data_arc_in_days": 11,
        "observations_used": 57,
        "orbit_uncertainty": "8",
        "minimum_orbit_intersection": ".0227177",
        "jupiter_tisserand_invariant": "3.315",
        "epoch_osculation": "2458373.5",
        "eccentricity": ".563569461547103",
        "semi_major_axis": "2.36143326894849",
        "inclination": "3.402227551966939",
        "ascending_node_longitude": "339.2513841568909",
        "orbital_period": "1325.44570781089",
        "perihelion_distance": "1.030601593087774",
        "perihelion_argument": "5.435071324539508",
        "aphelion_distance": "3.692264944809205",
        "perihelion_time": "2458369.009282634902",
        "mean_anomaly": "1.219709145314867",
        "mean_motion": ".2716067492455629",
        "equinox": "J2000",
        "orbit_class": {
            "orbit_class_type": "AMO",
            "orbit_class_description": "Near-Earth asteroid orbits similar to that of 1221 Amor",
            "orbit_class_range": "1.017 AU < q (perihelion) < 1.3 AU"
        }
    },
    "is_sentry_object": false
}